{
  "type": "FeatureCollection",
  "features": [
    {
      "type": "Feature",
      "properties": {
        "norad_id": 34918,
        "name": "COSMOS 2251 DEB",
        "group": "cosmos-2251-debris",
        "lat": -26.52174609436476,
        "lon": -50.99614493125088,
        "alt_km": 678.579099861824,
        "timestamp": "2025-12-10T20:49:52.948074+00:00",
        "meta_object_name": "COSMOS 2251 DEB",
        "meta_object_id": "1993-036ADP",
        "meta_epoch": "2025-12-10T06:27:09.237024",
        "meta_mean_motion": 14.6111897,
        "meta_eccentricity": 0.0033898,
        "meta_inclination": 74.0712,
        "meta_ra_of_asc_node": 318.3402,
        "meta_arg_of_pericenter": 286.4186,
        "meta_mean_anomaly": 135.6409,
        "meta_ephemeris_type": 0,
        "meta_classification_type": "U",
        "meta_norad_cat_id": 34918,
        "meta_element_set_no": 999,
        "meta_rev_at_epoch": 65300,
        "meta_bstar": 0.0032517,
        "meta_mean_motion_dot": 0.00016131,
        "meta_mean_motion_ddot": 0,
        "tle_line1": "1 34918U 93036ADP 25344.26885691  .00016131  00000+0  32517-2 0  9990",
        "tle_line2": "2 34918  74.0712 318.3402 0033898 286.4186 135.6409 14.61118970653005"
      },
      "geometry": {
        "type": "Point",
        "coordinates": [
          -50.99614493125088,
          -26.52174609436476
        ]
      }
    },
    {
      "type": "Feature",
      "properties": {
        "norad_id": 34924,
        "name": "COSMOS 2251 DEB",
        "group": "cosmos-2251-debris",
        "lat": -22.91585459289214,
        "lon": 86.07184479486448,
        "alt_km": 734.0763921945363,
        "timestamp": "2025-12-10T20:49:52.948084+00:00",
        "meta_object_name": "COSMOS 2251 DEB",
        "meta_object_id": "1993-036ADV",
        "meta_epoch": "2025-12-09T17:40:35.016960",
        "meta_mean_motion": 14.59983788,
        "meta_eccentricity": 0.00546463,
        "meta_inclination": 74.0408,
        "meta_ra_of_asc_node": 95.1777,
        "meta_arg_of_pericenter": 180.5365,
        "meta_mean_anomaly": 330.9802,
        "meta_ephemeris_type": 0,
        "meta_classification_type": "U",
        "meta_norad_cat_id": 34924,
        "meta_element_set_no": 999,
        "meta_rev_at_epoch": 87679,
        "meta_bstar": 0.0017478833,
        "meta_mean_motion_dot": 8.543e-05,
        "meta_mean_motion_ddot": 0,
        "tle_line1": "1 34924U 93036ADV 25343.73651640  .00008543  00000+0  17479-2 0  9991",
        "tle_line2": "2 34924  74.0408  95.1777 0054646 180.5365 330.9802 14.59983788876790"
      },
      "geometry": {
        "type": "Point",
        "coordinates": [
          86.07184479486448,
          -22.91585459289214
        ]
      }
    },
    {
      "type": "Feature",
      "properties": {
        "norad_id": 34944,
        "name": "COSMOS 2251 DEB",
        "group": "cosmos-2251-debris",
        "lat": 26.531891504534514,
        "lon": -116.2097013941661,
        "alt_km": 751.7663229320588,
        "timestamp": "2025-12-10T20:49:52.948093+00:00",
        "meta_object_name": "COSMOS 2251 DEB",
        "meta_object_id": "1993-036ADX",
        "meta_epoch": "2025-12-07T09:30:46.029312",
        "meta_mean_motion": 14.14167925,
        "meta_eccentricity": 0.02195348,
        "meta_inclination": 73.7495,
        "meta_ra_of_asc_node": 241.6775,
        "meta_arg_of_pericenter": 90.2413,
        "meta_mean_anomaly": 272.3884,
        "meta_ephemeris_type": 0,
        "meta_classification_type": "U",
        "meta_norad_cat_id": 34944,
        "meta_element_set_no": 999,
        "meta_rev_at_epoch": 64007,
        "meta_bstar": 0.00099492053,
        "meta_mean_motion_dot": 2.364e-05,
        "meta_mean_motion_ddot": 0,
        "tle_line1": "1 34944U 93036ADX 25341.39636608  .00002364  00000+0  99492-3 0  9991",
        "tle_line2": "2 34944  73.7495 241.6775 0219534  90.2413 272.3884 14.14167925640077"
      },
      "geometry": {
        "type": "Point",
        "coordinates": [
          -116.2097013941661,
          26.531891504534514
        ]
      }
    },
    {
      "type": "Feature",
      "properties": {
        "norad_id": 34946,
        "name": "COSMOS 2251 DEB",
        "group": "cosmos-2251-debris",
        "lat": 11.716758496981326,
        "lon": 162.29433349707213,
        "alt_km": 662.9791182854306,
        "timestamp": "2025-12-10T20:49:52.948103+00:00",
        "meta_object_name": "COSMOS 2251 DEB",
        "meta_object_id": "1993-036ADZ",
        "meta_epoch": "2025-12-09T17:47:38.816736",
        "meta_mean_motion": 14.6197132,
        "meta_eccentricity": 0.00487389,
        "meta_inclination": 74.0236,
        "meta_ra_of_asc_node": 347.8579,
        "meta_arg_of_pericenter": 126.0022,
        "meta_mean_anomaly": 234.5678,
        "meta_ephemeris_type": 0,
        "meta_classification_type": "U",
        "meta_norad_cat_id": 34946,
        "meta_element_set_no": 999,
        "meta_rev_at_epoch": 88165,
        "meta_bstar": 0.00088969949,
        "meta_mean_motion_dot": 4.507e-05,
        "meta_mean_motion_ddot": 0,
        "tle_line1": "1 34946U 93036ADZ 25343.74142149  .00004507  00000+0  88970-3 0  9996",
        "tle_line2": "2 34946  74.0236 347.8579 0048738 126.0022 234.5678 14.61971320881653"
      },
      "geometry": {
        "type": "Point",
        "coordinates": [
          162.29433349707213,
          11.716758496981326
        ]
      }
    },
    {
      "type": "Feature",
      "properties": {
        "norad_id": 34949,
        "name": "COSMOS 2251 DEB",
        "group": "cosmos-2251-debris",
        "lat": -14.313646241361003,
        "lon": 109.1207033637157,
        "alt_km": 648.5732208095978,
        "timestamp": "2025-12-10T20:49:52.948113+00:00",
        "meta_object_name": "COSMOS 2251 DEB",
        "meta_object_id": "1993-036AEC",
        "meta_epoch": "2025-12-09T15:34:41.030400",
        "meta_mean_motion": 14.73963573,
        "meta_eccentricity": 0.008042,
        "meta_inclination": 74.0182,
        "meta_ra_of_asc_node": 115.6941,
        "meta_arg_of_pericenter": 261.6413,
        "meta_mean_anomaly": 97.5637,
        "meta_ephemeris_type": 0,
        "meta_classification_type": "U",
        "meta_norad_cat_id": 34949,
        "meta_element_set_no": 999,
        "meta_rev_at_epoch": 88316,
        "meta_bstar": 0.00087029,
        "meta_mean_motion_dot": 5.989e-05,
        "meta_mean_motion_ddot": 0,
        "tle_line1": "1 34949U 93036AEC 25343.64908600  .00005989  00000+0  87029-3 0  9999",
        "tle_line2": "2 34949  74.0182 115.6941 0080420 261.6413  97.5637 14.73963573883168"
      },
      "geometry": {
        "type": "Point",
        "coordinates": [
          109.1207033637157,
          -14.313646241361003
        ]
      }
    },
    {
      "type": "Feature",
      "properties": {
        "norad_id": 34953,
        "name": "COSMOS 2251 DEB",
        "group": "cosmos-2251-debris",
        "lat": -6.65005500776576,
        "lon": 29.195230193585747,
        "alt_km": 632.7664694983478,
        "timestamp": "2025-12-10T20:49:52.948123+00:00",
        "meta_object_name": "COSMOS 2251 DEB",
        "meta_object_id": "1993-036AEG",
        "meta_epoch": "2025-12-10T11:20:13.277760",
        "meta_mean_motion": 14.68925756,
        "meta_eccentricity": 0.00579078,
        "meta_inclination": 74.0932,
        "meta_ra_of_asc_node": 31.8633,
        "meta_arg_of_pericenter": 24.6009,
        "meta_mean_anomaly": 37.8282,
        "meta_ephemeris_type": 0,
        "meta_classification_type": "U",
        "meta_norad_cat_id": 34953,
        "meta_element_set_no": 999,
        "meta_rev_at_epoch": 88095,
        "meta_bstar": 0.0011956838,
        "meta_mean_motion_dot": 7.155e-05,
        "meta_mean_motion_ddot": 0,
        "tle_line1": "1 34953U 93036AEG 25344.47237590  .00007155  00000+0  11957-2 0  9992",
        "tle_line2": "2 34953  74.0932  31.8633 0057907  24.6009  37.8282 14.68925756880957"
      },
      "geometry": {
        "type": "Point",
        "coordinates": [
          29.195230193585747,
          -6.65005500776576
        ]
      }
    },
    {
      "type": "Feature",
      "properties": {
        "norad_id": 34955,
        "name": "COSMOS 2251 DEB",
        "group": "cosmos-2251-debris",
        "lat": -73.58136051174523,
        "lon": 174.04475351222646,
        "alt_km": 534.9329547797151,
        "timestamp": "2025-12-10T20:49:52.948133+00:00",
        "meta_object_name": "COSMOS 2251 DEB",
        "meta_object_id": "1993-036AEJ",
        "meta_epoch": "2025-12-10T10:00:29.355552",
        "meta_mean_motion": 15.00456556,
        "meta_eccentricity": 0.0077988,
        "meta_inclination": 74.0368,
        "meta_ra_of_asc_node": 251.2293,
        "meta_arg_of_pericenter": 321.4466,
        "meta_mean_anomaly": 38.1166,
        "meta_ephemeris_type": 0,
        "meta_classification_type": "U",
        "meta_norad_cat_id": 34955,
        "meta_element_set_no": 999,
        "meta_rev_at_epoch": 89999,
        "meta_bstar": 0.0012331385,
        "meta_mean_motion_dot": 0.00016553,
        "meta_mean_motion_ddot": 0,
        "tle_line1": "1 34955U 93036AEJ 25344.41700643  .00016553  00000+0  12331-2 0  9991",
        "tle_line2": "2 34955  74.0368 251.2293 0077988 321.4466  38.1166 15.00456556899991"
      },
      "geometry": {
        "type": "Point",
        "coordinates": [
          174.04475351222646,
          -73.58136051174523
        ]
      }
    }
  ]
}